FLOCK 3P-47             
1 42032U 17008CN  17249.88978051  .00006582  00000-0  28312-3 0  9996
2 42032  97.4888 311.0570 0006440 290.3600  69.6945 15.22960284 30795
FLOCK 3P-44             
1 42033U 17008CP  17249.88371214  .00009193  00000-0  39380-3 0  9993
2 42033  97.4891 311.0698 0006444 292.8901  67.1655 15.22985231 29547
FLOCK 3P-64             
1 42034U 17008CQ  17249.88279848  .00006867  00000-0  29526-3 0  9990
2 42034  97.4887 311.0607 0006332 293.2332  66.8237 15.22957473 30969
FLOCK 3P-63             
1 42035U 17008CR  17250.14466832  .00006518  00000-0  28009-3 0  9991
2 42035  97.4885 311.3209 0006320 291.6494  68.4069 15.23000535 28975
FLOCK 3P-62             
1 42036U 17008CS  17249.93661749  .00005366  00000-0  23078-3 0  9992
2 42036  97.4888 311.1428 0006420 294.4659  65.5907 15.23051776 30149
FLOCK 3P-38             
1 42037U 17008CT  17250.14282368  .00004339  00000-0  18778-3 0  9994
2 42037  97.4886 311.3239 0006035 292.9487  67.1112 15.22953976 30951
FLOCK 3P-39             
1 42038U 17008CU  17249.94354549  .00003071  00000-0  13383-3 0  9991
2 42038  97.4883 311.1219 0006281 293.6698  66.3879 15.22942781 30874
FLOCK 3P-15             
1 42039U 17008CV  17249.81616068  .00004535  00000-0  19615-3 0  9995
2 42039  97.4887 310.9938 0006166 294.0254  66.0337 15.22948476 30131
FLOCK 3P-13             
1 42040U 17008CW  17249.94191582  .00007092  00000-0  30485-3 0  9999
2 42040  97.4889 311.1362 0006142 294.0073  66.0520 15.22957245 30141
FLOCK 3P-55             
1 42041U 17008CX  17249.92094698  .00003017  00000-0  13113-3 0  9990
2 42041  97.4888 311.1605 0005914 300.1519  59.9131 15.23051149 30981
FLOCK 3P-56             
1 42042U 17008CY  17249.91710360  .00005670  00000-0  24215-3 0  9993
2 42042  97.4884 311.1568 0005883 298.4746  61.5898 15.23266714 30774
FLOCK 3P-81             
1 42043U 17008CZ  17250.16540667  .00006712  00000-0  28867-3 0  9999
2 42043  97.4910 311.3695 0006634 270.8483  89.1994 15.22955508 30199
FLOCK 3P-87             
1 42044U 17008DA  17249.91109557  .00005404  00000-0  23311-3 0  9996
2 42044  97.4907 311.0864 0006798 268.2548  91.7910 15.22943506 30300
FLOCK 3P-29             
1 42045U 17008DB  17249.91285196  .00005019  00000-0  21681-3 0  9991
2 42045  97.4890 311.0329 0006481 264.1912  95.8586 15.22937334 30156
FLOCK 3P-82             
1 42046U 17008DC  17249.91447241  .00006493  00000-0  27946-3 0  9990
2 42046  97.4909 311.0875 0006883 268.7291  91.3157 15.22941262 30206
FLOCK 3P-78             
1 42047U 17008DD  17249.91028875  .00005127  00000-0  22142-3 0  9995
2 42047  97.4910 311.0945 0006726 267.7778  92.2688 15.22932338 30137
FLOCK 3P-74             
1 42048U 17008DE  17249.72143435  .00005596  00000-0  24164-3 0  9991
2 42048  97.4913 310.8937 0006999 269.8522  90.1913 15.22893953 30105
FLOCK 3P-31             
1 42049U 17008DF  17249.91919931  .00007596  00000-0  32706-3 0  9998
2 42049  97.4891 311.0271 0006599 265.8764  94.1718 15.22873653 29598
FLOCK 3P-83             
1 42050U 17008DG  17249.78864171  .00003119  00000-0  13627-3 0  9998
2 42050  97.4910 310.9483 0006903 270.5068  89.5377 15.22847808 30846
FLOCK 3P-72             
1 42051U 17008DH  17250.16404519  .00004942  00000-0  21349-3 0  9994
2 42051  97.4913 311.3784 0006486 266.6765  93.3729 15.22939311 28498
LEMUR-2-REDFERN-GOES    
1 42059U 98067LA  17249.79826835  .00029736  00000-0  36008-3 0  9998
2 42059  51.6401 346.6610 0006944 248.5957 111.4296 15.60381280 28747
LEMUR-2-TRUTNA          
1 42067U 98067LC  17249.87244658  .00070643  00000-0  71588-3 0  9998
2 42067  51.6394 344.1504 0005375 256.7679 103.2717 15.64581569 28610
LEMUR-2-AUSTINTACIOUS   
1 42068U 98067LD  17249.76573501  .00041123  00000-0  47730-3 0  9992
2 42068  51.6401 346.4444 0006657 247.2416 112.7875 15.61327872 28674
LEMUR-2-TRUTNAHD        
1 42069U 98067LE  17249.71841577  .00023324  00000-0  27953-3 0  9997
2 42069  51.6410 346.8896 0006115 247.3913 112.6434 15.60804446 28713
HAVELSAT                
1 42700U 98067LH  17250.18126274  .00025350  00000-0  33754-3 0  9999
2 42700  51.6408 347.7189 0006120 277.8095  82.2202 15.57964637 17710
SOMP 2                  
1 42701U 98067LJ  17250.12696790  .00025729  00000-0  34632-3 0  9995
2 42701  51.6410 348.1103 0006050 277.3720  82.6584 15.57665267 17698
COLUMBIA                
1 42702U 98067LK  17250.16070385  .00060701  00000-0  71217-3 0  9995
2 42702  51.6399 346.8323 0006361 283.0140  77.0144 15.60879918 17648
SGSAT                   
1 42703U 98067LL  17250.13220145  .00047975  00000-0  59035-3 0  9996
2 42703  51.6395 347.3887 0001828 255.3796 104.6995 15.59751436 17629
CXBN-2                  
1 42704U 98067LM  17249.49270276  .00026596  00000-0  35862-3 0  9992
2 42704  51.6410 351.3726 0001517 230.0474 130.0385 15.57613863 17527
ICECUBE                 
1 42705U 98067LN  17249.86379694  .00036001  00000-0  47088-3 0  9993
2 42705  51.6420 349.3579 0001381 230.8278 129.2592 15.58267469 17642
PHOENIX                 
1 42706U 98067LP  17250.18705402  .00026068  00000-0  34934-3 0  9999
2 42706  51.6410 347.7635 0001311 274.0327  86.0516 15.57791590 17625
X-CUBESAT               
1 42707U 98067LQ  17250.18726727  .00026133  00000-0  34949-3 0  9992
2 42707  51.6404 347.7607 0001378 278.0354  82.0482 15.57845250 17615
QBEE50-LTU-OC           
1 42708U 98067LR  17250.12600880  .00025516  00000-0  34226-3 0  9990
2 42708  51.6403 348.1018 0001414 274.9505  85.1326 15.57778814 17566
ALTAIR PATHFINDER       
1 42711U 98067LS  17250.24054786  .00017724  00000-0  25032-3 0  9992
2 42711  51.6407 348.1127 0003804 207.4051 152.6741 15.56637286 17283
SHARC                   
1 42712U 98067LT  17250.17614173  .00018644  00000-0  26429-3 0  9990
2 42712  51.6412 348.4385 0001848 209.1282 150.9607 15.56501332 17510
ZA-AEROSAT              
1 42713U 98067LU  17250.14964439  .00022569  00000-0  31004-3 0  9997
2 42713  51.6408 348.2597 0001706 205.9618 154.1289 15.57215032 17274
LINK                    
1 42714U 98067LV  17250.13305499  .00035063  00000-0  46221-3 0  9992
2 42714  51.6405 348.1449 0001526 230.3582 129.7276 15.58071471 17383
CSUNSAT 1               
1 42715U 98067LW  17250.15587186  .00024125  00000-0  33071-3 0  9996
2 42715  51.6405 348.2972 0003757 198.2817 161.8041 15.57225208 17270
UPSAT                   
1 42716U 98067LX  17249.73322823  .00026823  00000-0  35471-3 0  9997
2 42716  51.6411 349.9782 0004639 282.2384  77.8089 15.58122825 17346
SPACECUBE               
1 42717U 98067LY  17250.13525159  .00026038  00000-0  35098-3 0  9994
2 42717  51.6408 348.1629 0004506 282.4708  77.5780 15.57627897 16644
HOOPOE                  
1 42718U 98067LZ  17249.87017403  .00028857  00000-0  38427-3 0  9992
2 42718  51.6406 349.3944 0004541 280.7652  79.2829 15.57895365 16600
CHALLENGER              
1 42721U 98067MA  17249.80765256  .00033249  00000-0  43326-3 0  9990
2 42721  51.6403 349.7203 0007216 258.4406 101.5776 15.58381812 16297
NJUST-1                 
1 42722U 98067MB  17250.10716933  .00021208  00000-0  29465-3 0  9994
2 42722  51.6407 348.7232 0007147 257.0142 103.0052 15.56931002 16337
UNSW-ECO                
1 42723U 98067MC  17250.15273162  .00030250  00000-0  40626-3 0  9991
2 42723  51.6410 348.2795 0007065 258.9281 101.0916 15.57625705 16321
DUTHSAT                 
1 42724U 98067MD  17249.88073894  .00036198  00000-0  47398-3 0  9990
2 42724  51.6410 349.4608 0006323 262.8743  97.1531 15.58216358 16207
LILACSAT-1              
1 42725U 98067ME  17249.85161640  .00022821  00000-0  31521-3 0  9994
2 42725  51.6409 350.0185 0006180 261.0401  98.9892 15.57045535 16190
NSIGHT-1                
1 42726U 98067MF  17249.74898408  .00012431  00000-0  18107-3 0  9993
2 42726  51.6413 350.8329 0006113 258.1146 101.9160 15.56119766 16182
SNUSAT-1                
1 42727U 98067MG  17249.72152583  .00020375  00000-0  28146-3 0  9999
2 42727  51.6402 350.6430 0007125 218.1284 141.9205 15.57113888 16145
QBITO                   
1 42728U 98067MH  17249.70827482  .00023673  00000-0  32255-3 0  9995
2 42728  51.6415 350.5648 0003642 273.2733  86.7843 15.57401106 15989
AALTO-2                 
1 42729U 98067MJ  17249.83642417  .00026656  00000-0  36208-3 0  9999
2 42729  51.6408 349.9176 0003628 273.8060  86.2517 15.57410906 16019
SUSAT                   
1 42730U 98067MK  17249.71230627  .00023017  00000-0  31546-3 0  9992
2 42730  51.6409 350.5872 0003628 270.3960  89.6616 15.57261183 15987
I-INSPIRE II            
1 42731U 98067ML  17249.82860541  .00026703  00000-0  35797-3 0  9996
2 42731  51.6401 349.8570 0006284 205.8513 154.2166 15.57751302 16059
POLYITAN-2-SAU          
1 42732U 98067MM  17250.09046781  .00028250  00000-0  38174-3 0  9991
2 42732  51.6400 348.6048 0006515 205.2880 154.7794 15.57503143 16098
SNUSAT-1B               
1 42733U 98067MN  17249.84129736  .00026052  00000-0  35526-3 0  9991
2 42733  51.6403 349.9419 0006366 205.7313 154.3363 15.57305989 16050
EXALTA-1                
1 42734U 98067MP  17250.14956909  .00031388  00000-0  41941-3 0  9993
2 42734  51.6402 348.2519 0008188 232.3242 127.7008 15.57732794 16052
AOXIANG-1               
1 42735U 98067MQ  17250.16884827  .00022466  00000-0  31081-3 0  9996
2 42735  51.6407 348.3843 0007735 253.3793 106.6350 15.57001221 17477
BEEAGLESAT              
1 42736U 98067MR  17250.10251492  .00023776  00000-0  32689-3 0  9997
2 42736  51.6407 348.6915 0007602 252.8273 107.1887 15.57132546 16151
ATLANTIS                
1 42737U 98067MS  17250.15736468  .00056320  00000-0  68868-3 0  9993
2 42737  51.6390 347.5531 0007427 260.3948  99.6206 15.59820636 16069
LEMUR-2-ANGELA          
1 42752U 17019B   17250.16350976  .00003499  00000-0  14011-3 0  9995
2 42752  51.6414   7.5654 0010213 276.0019  83.9796 15.27700065 13821
